IRIDIUM 33              
1 24946U 97051C   24154.48560077  .00000471  00000+0  16050-3 0  9996
2 24946  86.3848 302.3221 0006232 227.4494 132.6177 14.34373503398305
IRIDIUM 33 DEB          
1 33773U 97051L   24154.47699384  .00001588  00000+0  48948-3 0  9998
2 33773  86.3995 296.6175 0010888 188.0242 172.0785 14.40858189803011
IRIDIUM 33 DEB          
1 33775U 97051N   24154.65157035  .00002324  00000+0  75464-3 0  9994
2 33775  86.3628 287.1161 0014560 197.8142 291.0030 14.38451428801086
IRIDIUM 33 DEB          
1 33776U 97051P   24154.50544380  .00001241  00000+0  41834-3 0  9993
2 33776  86.4029 314.7552 0013170 222.0325 206.8069 14.36243888800637
IRIDIUM 33 DEB          
1 33777U 97051Q   24154.53329419  .00002849  00000+0  75933-3 0  9993
2 33777  86.3798 276.4941 0009413 354.6714   5.4387 14.48167218804326
IRIDIUM 33 DEB          
1 33850U 97051T   24154.40770580  .00002547  00000+0  81890-3 0  9994
2 33850  86.3412 269.5728 0011555 202.6471 226.9489 14.38991087801136
IRIDIUM 33 DEB          
1 33853U 97051W   24154.24305017  .00001764  00000+0  10546-2 0  9997
2 33853  86.0018 233.7693 0225789 145.1114 272.6584 13.94678417775474
IRIDIUM 33 DEB          
1 33859U 97051AC  24154.31065908  .00016643  00000+0  33528-2 0  9990
2 33859  86.3351 259.3864 0043050 148.8879 211.4894 14.60838083802482
IRIDIUM 33 DEB          
1 33860U 97051AD  24154.33046462  .00006175  00000+0  14504-2 0  9990
2 33860  86.3870 271.7621 0013330  78.6245 334.6216 14.54265259805676
IRIDIUM 33 DEB          
1 33862U 97051AF  24154.39061670  .00004651  00000+0  10168-2 0  9995
2 33862  86.4098 281.1103 0060276 175.0767 243.0861 14.56453303806584
IRIDIUM 33 DEB          
1 33864U 97051AH  24154.53946419  .00009033  00000+0  14331-2 0  9991
2 33864  86.2736 181.0724 0004879 286.6156 226.8506 14.72062264807775
IRIDIUM 33 DEB          
1 33866U 97051AK  24154.95619253  .00004629  00000+0  20241-2 0  9995
2 33866  86.3018 328.0004 0113219 144.0760   8.9975 14.20231844788785
IRIDIUM 33 DEB          
1 33867U 97051AL  24154.32078931  .00017849  00000+0  26205-2 0  9993
2 33867  86.4154 250.0283 0019263 223.1057 136.8654 14.75298810811387
IRIDIUM 33 DEB          
1 33870U 97051AP  24154.45165745  .00003168  00000+0  98987-3 0  9997
2 33870  86.3746 296.4629 0020611 227.5514 198.7938 14.40397190800833
IRIDIUM 33 DEB          
1 33873U 97051AS  24154.16890930  .00115752  00000+0  64712-2 0  9990
2 33873  86.3495 216.8771 0018874 172.3585 187.7946 15.12817893810963
IRIDIUM 33 DEB          
1 33874U 97051AT  24154.62262762  .00014587  00000+0  32945-2 0  9995
2 33874  86.2798 260.7976 0037793  58.0166  50.5372 14.55734814797578
IRIDIUM 33 DEB          
1 33881U 97051BA  24154.74720935  .00006847  00000+0  21235-2 0  9997
2 33881  86.3924 345.8896 0059988 225.8575 257.8438 14.39979872794223
IRIDIUM 33 DEB          
1 33884U 97051BD  24154.76231139  .00008536  00000+0  17865-2 0  9996
2 33884  86.3776 258.3255 0014950  90.7297  62.1599 14.59616058806559
IRIDIUM 33 DEB          
1 33886U 97051BF  24154.90372316  .00000807  00000+0  27774-3 0  9991
2 33886  86.3812 301.6901 0012130 270.3595 254.2672 14.34764321800490
IRIDIUM 33 DEB          
1 33887U 97051BG  24154.71207134  .00000586  00000+0  19431-3 0  9991
2 33887  86.3064 243.5101 0004322 264.1949 258.5566 14.36168624801524
IRIDIUM 33 DEB          
1 33888U 97051BH  24154.68975233  .00077380  00000+0  75066-2 0  9991
2 33888  86.3066 247.6265 0019497 139.5263 220.7419 14.92141627802734
IRIDIUM 33 DEB          
1 33952U 97051BM  24154.17597685  .00145371  00000+0  72146-2 0  9990
2 33952  86.3276 209.8021 0010313 168.3308 191.8175 15.17010417810890
IRIDIUM 33 DEB          
1 33953U 97051BN  24154.40185972  .00005371  00000+0  14879-2 0  9993
2 33953  86.3877 294.2656 0022545 159.4656 254.5794 14.46326410802054
IRIDIUM 33 DEB          
1 33959U 97051BU  24154.43444683  .00005065  00000+0  94293-3 0  9998
2 33959  86.3621 301.4149 0053116 331.4413  28.3891 14.64000500798133
IRIDIUM 33 DEB          
1 33960U 97051BV  24154.40430736  .00005948  00000+0  12350-2 0  9994
2 33960  86.2715 187.0701 0003249 139.0057 285.1600 14.60011926806487
IRIDIUM 33 DEB          
1 33965U 97051CA  24154.21633604  .00027912  00000+0  36240-2 0  9996
2 33965  86.3568 239.4425 0012264 195.1189 164.9668 14.80557827808049
IRIDIUM 33 DEB          
1 33966U 97051CB  24154.39091595  .00002529  00000+0  71807-3 0  9999
2 33966  86.3918 284.7193 0005779 265.0432 154.1418 14.45095984803642
IRIDIUM 33 DEB          
1 34071U 97051CE  24154.36255571  .00002828  00000+0  81495-3 0  9996
2 34071  86.3465 259.4879 0008944 157.2041 202.9560 14.44412522802584
IRIDIUM 33 DEB          
1 34077U 97051CL  24154.60564951  .00006682  00000+0  16987-2 0  9999
2 34077  86.3892 294.4617 0014641 110.7046  12.2632 14.50545048801996
IRIDIUM 33 DEB          
1 34079U 97051CN  24154.31608953  .00010002  00000+0  20120-2 0  9995
2 34079  86.3829 258.2676 0010420 107.7843 306.2521 14.61471239807556
IRIDIUM 33 DEB          
1 34086U 97051CV  24154.81315704  .00020307  00000+0  34158-2 0  9992
2 34086  86.3715 281.5988 0015391 127.3409  23.4605 14.69420076 10098
IRIDIUM 33 DEB          
1 34088U 97051CX  24154.81525884  .00010785  00000+0  22184-2 0  9991
2 34088  86.3938 280.2604 0008864  24.0587 129.2467 14.60466154805153
IRIDIUM 33 DEB          
1 34091U 97051DA  24154.87111763  .00009623  00000+0  25847-2 0  9996
2 34091  86.3629 314.1709 0065186  62.9042 297.8790 14.46735316797260
IRIDIUM 33 DEB          
1 34097U 97051DG  24154.30424912  .00002486  00000+0  97323-3 0  9992
2 34097  86.2040 246.3336 0089057  11.4741 348.8451 14.26991684791313
IRIDIUM 33 DEB          
1 34102U 97051DM  24154.08461670  .00019569  00000+0  42449-2 0  9994
2 34102  86.3674 350.4041 0068478 269.1277 219.2550 14.56564550792687
IRIDIUM 33 DEB          
1 34106U 97051DR  24154.69650222  .00018072  00000+0  26802-2 0  9991
2 34106  86.3555 231.6924 0009736  66.2409  95.1612 14.74959375808450
IRIDIUM 33 DEB          
1 34107U 97051DS  24154.28723372  .00021025  00000+0  24423-2 0  9993
2 34107  86.3725 239.5930 0009255  96.6559 324.2086 14.85236368809244
IRIDIUM 33 DEB          
1 34145U 97051DY  24154.60883760  .00003488  00000+0  11869-2 0  9992
2 34145  86.2185 219.6345 0062229 124.0329 236.6799 14.35213685796104
IRIDIUM 33 DEB          
1 34146U 97051DZ  24154.27489125  .00002498  00000+0  74861-3 0  9995
2 34146  86.2877 235.1097 0029992 276.8344 142.6938 14.42227186800367
IRIDIUM 33 DEB          
1 34159U 97051EN  24154.39706147  .00001529  00000+0  52073-3 0  9993
2 34159  86.3497 285.6919 0027855 319.6648  40.2482 14.35723472799390
IRIDIUM 33 DEB          
1 34350U 97051ES  24154.72251964  .00001569  00000+0  46595-3 0  9991
2 34350  86.3300 244.2804 0022112 182.3509 339.7947 14.42544763802391
IRIDIUM 33 DEB          
1 34358U 97051FA  24154.60555708  .00044992  00000+0  44439-2 0  9990
2 34358  86.3162 211.9265 0023010 196.1682 325.2740 14.91538664807517
IRIDIUM 33 DEB          
1 34366U 97051FJ  24154.43673494  .00005188  00000+0  14868-2 0  9990
2 34366  86.3704 290.3321 0022200 203.2305 220.5466 14.44691676800925
IRIDIUM 33 DEB          
1 34375U 97051FT  24154.17620280  .00001231  00000+0  58284-3 0  9992
2 34375  86.4324  47.6423 0107435  99.3228  62.4186 14.15846839788010
IRIDIUM 33 DEB          
1 34376U 97051FU  24154.71015886  .00007137  00000+0  19263-2 0  9997
2 34376  86.3035 254.2822 0032280 254.0087 105.7559 14.47452209798897
IRIDIUM 33 DEB          
1 34486U 97051GB  24154.78663194  .00010402  00000+0  18822-2 0  9996
2 34486  86.4042 263.0076 0013862 278.1564 237.0149 14.66216111807301
IRIDIUM 33 DEB          
1 34487U 97051GC  24151.25408840  .00001260  00000+0  37911-3 0  9994
2 34487  86.3446 253.6802 0031731 182.0550 207.4954 14.41589173801543
IRIDIUM 33 DEB          
1 34488U 97051GD  24154.57822771  .00011641  00000+0  18101-2 0  9999
2 34488  86.3440 207.3718 0019021 198.2892 161.7643 14.72829834809007
IRIDIUM 33 DEB          
1 34489U 97051GE  24154.91773434  .01263884  00000+0  20833-1 0  9992
2 34489  86.3610 321.5135 0029013 262.3483  97.4480 15.49180532799204
IRIDIUM 33 DEB          
1 34492U 97051GH  24150.09254448  .00008228  00000+0  38995-2 0  9997
2 34492  86.4930 197.7224 0256540 224.6606 163.4763 14.03685177771001
IRIDIUM 33 DEB          
1 34497U 97051GN  24154.39624962  .00001746  00000+0  72958-3 0  9997
2 34497  86.2759 290.1337 0084218 334.2067  79.8332 14.23756042790607
IRIDIUM 33 DEB          
1 34503U 97051GU  24153.53470703  .00031192  00000+0  35202-2 0  9990
2 34503  86.3087 174.2729 0009545  18.0255 342.1306 14.86378141810938
IRIDIUM 33 DEB          
1 34508U 97051GZ  24154.52850617  .00004192  00000+0  15356-2 0  9999
2 34508  86.3744 337.8894 0071199 194.7667 165.1450 14.31252202793028
IRIDIUM 33 DEB          
1 34511U 97051HC  24153.83001745  .00057822  00000+0  60559-2 0  9999
2 34511  86.3685 266.4033 0020048 271.5453 210.9029 14.89165538804743
IRIDIUM 33 DEB          
1 34521U 97051HN  24154.33732732  .00005283  00000+0  12971-2 0  9992
2 34521  86.3818 274.1900 0004767  12.4800 347.6523 14.52216947803342
IRIDIUM 33 DEB          
1 34524U 97051HR  24154.23450171  .00101273  00000+0  66081-2 0  9995
2 34524  86.3249 229.4059 0020279 245.6839 114.2280 15.07234789805962
IRIDIUM 33 DEB          
1 34525U 97051HS  24154.37164062  .00001797  00000+0  56452-3 0  9994
2 34525  86.3720 284.5389 0006375 121.0251 292.7863 14.40002018800431
IRIDIUM 33 DEB          
1 34529U 97051HW  24154.74301130  .00001039  00000+0  32806-3 0  9994
2 34529  86.3633 272.9281 0004340 219.5116 140.5767 14.39387260801115
IRIDIUM 33 DEB          
1 34538U 97051JF  24154.29676257  .00003170  00000+0  10614-2 0  9999
2 34538  86.2776 248.9804 0038694   0.4789  60.5456 14.36677608797191
IRIDIUM 33 DEB          
1 34540U 97051JH  24154.57450888  .00004623  00000+0  93494-3 0  9995
2 34540  86.3237 199.5900 0019532 298.4263 217.9003 14.61059663808306
